GLOBALSTAR M001 [-]     
1 25162U 98008A   24036.55354538 -.00000050  00000+0  36026-3 0  9999
2 25162  52.0065 341.5853 0001427 298.7729 232.6307 12.38175974182172
GLOBALSTAR M004 [-]     
1 25163U 98008B   24036.59152157 -.00000093  00000+0  60487-4 0  9993
2 25163  51.9992 132.1452 0002424 254.7618 120.2221 12.63349511198796
GLOBALSTAR M002 [-]     
1 25164U 98008C   24037.43992531 -.00000079  00000+0 -45677-4 0  9995
2 25164  52.0028  45.7024 0001140 310.7643  49.3077 11.61496954126419
GLOBALSTAR M003 [-]     
1 25165U 98008D   24037.50944376  .00000049  00000+0  14759-2 0  9998
2 25165  51.9806 104.1717 0007673  17.6170  87.5633 12.11975737173080
GLOBALSTAR M014 [-]     
1 25306U 98023A   24036.28128520 -.00000063  00000+0  26781-3 0  9997
2 25306  51.9878 342.3011 0000728 133.2889  14.2859 11.65464365133110
GLOBALSTAR M006 [-]     
1 25307U 98023B   24037.18703434 -.00000092  00000+0 -34133-3 0  9994
2 25307  51.9972  13.9080 0003679 298.8601 151.9922 11.58156212159356
GLOBALSTAR M015 [-]     
1 25308U 98023C   24037.42932792 -.00000130  00000+0 -12801-2 0  9993
2 25308  51.9822  89.0097 0012184 269.0022 189.4798 11.48857122137351
GLOBALSTAR M008 [-]     
1 25309U 98023D   24036.76527119 -.00000071  00000+0  19767-3 0  9995
2 25309  51.9943 200.1649 0002358 181.8532 281.1776 12.36036184176336
